start=new Date('2021-08-27T00:00:00.000Z').valueOf();
sats=[{"OBJECT_TYPE":"PAYLOAD","DECAY_DATE":null,"MEAN_MOTION_DOT":"0.00000386","EPOCH":"2021-08-26T08:44:58.034976","MEAN_MOTION_DDOT":"0.0000000000000","ELEMENT_SET_NO":"999","NORAD_CAT_ID":"45699","ECCENTRICITY":"0.00005230","ARG_OF_PERICENTER":"84.0560","GP_ID":"183471917","SITE":"AFETR","MEAN_ANOMALY":"276.0488","FILE":"3103463","APOAPSIS":"547.609","EPHEMERIS_TYPE":"0","PERIOD":"95.593","CLASSIFICATION_TYPE":"U","TLE_LINE2":"2 45699  53.0527 272.1592 0000523  84.0560 276.0488 15.06389213 69501","REF_FRAME":"TEME","RCS_SIZE":"LARGE","LAUNCH_DATE":"2020-06-04","SEMIMAJOR_AXIS":"6925.382","TLE_LINE1":"1 45699U 20035AU  21238.36456059  .00000386  00000-0  44818-4 0  9993","MEAN_ELEMENT_THEORY":"SGP4","REV_AT_EPOCH":"6950","BSTAR":"0.00004481800000","TIME_SYSTEM":"UTC","OBJECT_ID":"2020-035AU","COUNTRY_CODE":"US","INCLINATION":"53.0527","OBJECT_NAME":"STARLINK-1398","PERIAPSIS":"546.884","CENTER_NAME":"EARTH","MEAN_MOTION":"15.06389213","RA_OF_ASC_NODE":"272.1592"},{"RA_OF_ASC_NODE":"271.5803","CENTER_NAME":"EARTH","PERIAPSIS":"546.868","MEAN_MOTION":"15.06398114","COUNTRY_CODE":"US","INCLINATION":"53.0543","OBJECT_NAME":"STARLINK-1400","BSTAR":"0.00004802300000","REV_AT_EPOCH":"6952","TIME_SYSTEM":"UTC","OBJECT_ID":"2020-035AV","SEMIMAJOR_AXIS":"6925.354","LAUNCH_DATE":"2020-06-04","MEAN_ELEMENT_THEORY":"SGP4","TLE_LINE1":"1 45700U 20035AV  21238.49355986  .00000434  00000-0  48023-4 0  9993","EPHEMERIS_TYPE":"0","APOAPSIS":"547.571","PERIOD":"95.592","CLASSIFICATION_TYPE":"U","TLE_LINE2":"2 45700  53.0543 271.5803 0000508  84.9143 275.1904 15.06398114 69524","RCS_SIZE":"LARGE","REF_FRAME":"TEME","ELEMENT_SET_NO":"999","MEAN_MOTION_DDOT":"0.0000000000000","NORAD_CAT_ID":"45700","ARG_OF_PERICENTER":"84.9143","ECCENTRICITY":"0.00005080","FILE":"3103463","MEAN_ANOMALY":"275.1904","GP_ID":"183471668","SITE":"AFETR","OBJECT_TYPE":"PAYLOAD","DECAY_DATE":null,"MEAN_MOTION_DOT":"0.00000434","EPOCH":"2021-08-26T11:50:43.571904"},{"COUNTRY_CODE":"US","OBJECT_NAME":"STARLINK-1403","INCLINATION":"53.0525","REV_AT_EPOCH":"6951","BSTAR":"0.00004607500000","OBJECT_ID":"2020-035AW","TIME_SYSTEM":"UTC","RA_OF_ASC_NODE":"271.7494","PERIAPSIS":"546.950","CENTER_NAME":"EARTH","MEAN_MOTION":"15.06386867","NORAD_CAT_ID":"45701","MEAN_MOTION_DDOT":"0.0000000000000","ELEMENT_SET_NO":"999","GP_ID":"183472919","SITE":"AFETR","MEAN_ANOMALY":"237.7829","FILE":"3103463","ECCENTRICITY":"0.00004390","ARG_OF_PERICENTER":"122.3202","DECAY_DATE":null,"OBJECT_TYPE":"PAYLOAD","EPOCH":"2021-08-26T10:57:39.812256","MEAN_MOTION_DOT":"0.00000405","LAUNCH_DATE":"2020-06-04","SEMIMAJOR_AXIS":"6925.389","MEAN_ELEMENT_THEORY":"SGP4","TLE_LINE1":"1 45701U 20035AW  21238.45671079  .00000405  00000-0  46075-4 0  9997","PERIOD":"95.593","APOAPSIS":"547.558","EPHEMERIS_TYPE":"0","REF_FRAME":"TEME","RCS_SIZE":"LARGE","TLE_LINE2":"2 45701  53.0525 271.7494 0000439 122.3202 237.7829 15.06386867 69510","CLASSIFICATION_TYPE":"U"},{"MEAN_MOTION":"15.06394061","PERIAPSIS":"546.987","CENTER_NAME":"EARTH","RA_OF_ASC_NODE":"271.5289","TIME_SYSTEM":"UTC","OBJECT_ID":"2020-035AX","REV_AT_EPOCH":"6952","BSTAR":"0.00007271400000","INCLINATION":"53.0535","OBJECT_NAME":"STARLINK-1405","COUNTRY_CODE":"US","TLE_LINE2":"2 45702  53.0535 271.5289 0000353  54.8176 305.2846 15.06394061 69522","CLASSIFICATION_TYPE":"U","REF_FRAME":"TEME","RCS_SIZE":"LARGE","APOAPSIS":"547.476","EPHEMERIS_TYPE":"0","PERIOD":"95.593","TLE_LINE1":"1 45702U 20035AX  21238.50462616  .00000802  00000-0  72714-4 0  9999","MEAN_ELEMENT_THEORY":"SGP4","LAUNCH_DATE":"2020-06-04","SEMIMAJOR_AXIS":"6925.367","MEAN_MOTION_DOT":"0.00000802","EPOCH":"2021-08-26T12:06:39.700224","OBJECT_TYPE":"PAYLOAD","DECAY_DATE":null,"ECCENTRICITY":"0.00003530","ARG_OF_PERICENTER":"54.8176","MEAN_ANOMALY":"305.2846","GP_ID":"183472666","SITE":"AFETR","FILE":"3103463","ELEMENT_SET_NO":"999","MEAN_MOTION_DDOT":"0.0000000000000","NORAD_CAT_ID":"45702"},{"REF_FRAME":"TEME","RCS_SIZE":"LARGE","TLE_LINE2":"2 45703  53.0559 271.5407 0000741  92.4138 267.6935 15.06391830 69529","CLASSIFICATION_TYPE":"U","PERIOD":"95.593","APOAPSIS":"547.752","EPHEMERIS_TYPE":"0","MEAN_ELEMENT_THEORY":"SGP4","TLE_LINE1":"1 45703U 20035AY  21238.50092821 -.00001260  00000-0 -65727-4 0  9994","LAUNCH_DATE":"2020-06-04","SEMIMAJOR_AXIS":"6925.374","EPOCH":"2021-08-26T12:01:20.197344","MEAN_MOTION_DOT":"-0.00001260","DECAY_DATE":null,"OBJECT_TYPE":"PAYLOAD","GP_ID":"183471418","SITE":"AFETR","MEAN_ANOMALY":"267.6935","FILE":"3103463","ECCENTRICITY":"0.00007410","ARG_OF_PERICENTER":"92.4138","NORAD_CAT_ID":"45703","MEAN_MOTION_DDOT":"0.0000000000000","ELEMENT_SET_NO":"999","MEAN_MOTION":"15.06391830","PERIAPSIS":"546.725","CENTER_NAME":"EARTH","RA_OF_ASC_NODE":"271.5407","OBJECT_ID":"2020-035AY","TIME_SYSTEM":"UTC","REV_AT_EPOCH":"6952","BSTAR":"-0.00006572700000","OBJECT_NAME":"STARLINK-1407","INCLINATION":"53.0559","COUNTRY_CODE":"US"},{"CENTER_NAME":"EARTH","PERIAPSIS":"546.596","MEAN_MOTION":"15.06394646","RA_OF_ASC_NODE":"301.4070","BSTAR":"-0.00004839300000","REV_AT_EPOCH":"6911","TIME_SYSTEM":"UTC","OBJECT_ID":"2020-035AZ","COUNTRY_CODE":"US","INCLINATION":"53.0552","OBJECT_NAME":"STARLINK-1409","EPHEMERIS_TYPE":"0","APOAPSIS":"547.864","PERIOD":"95.592","CLASSIFICATION_TYPE":"U","TLE_LINE2":"2 45704  53.0552 301.4070 0000915 110.0825 250.0262 15.06394646 69117","RCS_SIZE":"LARGE","REF_FRAME":"TEME","SEMIMAJOR_AXIS":"6925.365","LAUNCH_DATE":"2020-06-04","MEAN_ELEMENT_THEORY":"SGP4","TLE_LINE1":"1 45704U 20035AZ  21238.53133467 -.00001002  00000-0 -48393-4 0  9994","OBJECT_TYPE":"PAYLOAD","DECAY_DATE":null,"MEAN_MOTION_DOT":"-0.00001002","EPOCH":"2021-08-26T12:45:07.315488","MEAN_MOTION_DDOT":"0.0000000000000","ELEMENT_SET_NO":"999","NORAD_CAT_ID":"45704","ARG_OF_PERICENTER":"110.0825","ECCENTRICITY":"0.00009150","FILE":"3103480","SITE":"AFETR","GP_ID":"183495896","MEAN_ANOMALY":"250.0262"},{"SEMIMAJOR_AXIS":"6925.367","LAUNCH_DATE":"2020-06-04","MEAN_ELEMENT_THEORY":"SGP4","TLE_LINE1":"1 45705U 20035BA  21238.55345066 -.00000912  00000-0 -42373-4 0  9998","EPHEMERIS_TYPE":"0","APOAPSIS":"547.487","PERIOD":"95.593","CLASSIFICATION_TYPE":"U","TLE_LINE2":"2 45705  53.0560 301.3150 0000368 126.1584 233.9439 15.06394059 69100","RCS_SIZE":"LARGE","REF_FRAME":"TEME","MEAN_MOTION_DDOT":"0.0000000000000","ELEMENT_SET_NO":"999","NORAD_CAT_ID":"45705","ARG_OF_PERICENTER":"126.1584","ECCENTRICITY":"0.00003680","FILE":"3103480","GP_ID":"183495144","SITE":"AFETR","MEAN_ANOMALY":"233.9439","OBJECT_TYPE":"PAYLOAD","DECAY_DATE":null,"MEAN_MOTION_DOT":"-0.00000912","EPOCH":"2021-08-26T13:16:58.137024","RA_OF_ASC_NODE":"301.3150","CENTER_NAME":"EARTH","PERIAPSIS":"546.977","MEAN_MOTION":"15.06394059","COUNTRY_CODE":"US","INCLINATION":"53.0560","OBJECT_NAME":"STARLINK-1410","BSTAR":"-0.00004237300000","REV_AT_EPOCH":"6910","TIME_SYSTEM":"UTC","OBJECT_ID":"2020-035BA"},{"MEAN_MOTION":"15.06397842","PERIAPSIS":"546.828","CENTER_NAME":"EARTH","RA_OF_ASC_NODE":"271.6485","TIME_SYSTEM":"UTC","OBJECT_ID":"2020-035BB","REV_AT_EPOCH":"6951","BSTAR":"0.00004482000000","INCLINATION":"53.0532","OBJECT_NAME":"STARLINK-1411","COUNTRY_CODE":"US","CLASSIFICATION_TYPE":"U","TLE_LINE2":"2 45706  53.0532 271.6485 0000567  84.4247 275.6806 15.06397842 69512","REF_FRAME":"TEME","RCS_SIZE":"LARGE","APOAPSIS":"547.613","EPHEMERIS_TYPE":"0","PERIOD":"95.592","MEAN_ELEMENT_THEORY":"SGP4","TLE_LINE1":"1 45706U 20035BB  21238.47881303  .00000387  00000-0  44820-4 0  9992","LAUNCH_DATE":"2020-06-04","SEMIMAJOR_AXIS":"6925.355","MEAN_MOTION_DOT":"0.00000387","EPOCH":"2021-08-26T11:29:29.445792","OBJECT_TYPE":"PAYLOAD","DECAY_DATE":null,"ECCENTRICITY":"0.00005670","ARG_OF_PERICENTER":"84.4247","GP_ID":"183473166","MEAN_ANOMALY":"275.6806","SITE":"AFETR","FILE":"3103463","ELEMENT_SET_NO":"999","MEAN_MOTION_DDOT":"0.0000000000000","NORAD_CAT_ID":"45706"},{"INCLINATION":"53.0537","OBJECT_NAME":"STARLINK-1412","COUNTRY_CODE":"US","TIME_SYSTEM":"UTC","OBJECT_ID":"2020-035BC","REV_AT_EPOCH":"6953","BSTAR":"-0.00003885400000","RA_OF_ASC_NODE":"271.3648","MEAN_MOTION":"15.06391417","PERIAPSIS":"546.584","CENTER_NAME":"EARTH","ECCENTRICITY":"0.00009470","ARG_OF_PERICENTER":"112.2419","MEAN_ANOMALY":"247.8671","GP_ID":"183471918","SITE":"AFETR","FILE":"3103463","MEAN_MOTION_DDOT":"0.0000000000000","ELEMENT_SET_NO":"999","NORAD_CAT_ID":"45707","MEAN_MOTION_DOT":"-0.00000860","EPOCH":"2021-08-26T12:59:43.862496","OBJECT_TYPE":"PAYLOAD","DECAY_DATE":null,"MEAN_ELEMENT_THEORY":"SGP4","TLE_LINE1":"1 45707U 20035BC  21238.54147989 -.00000860  00000-0 -38854-4 0  9994","LAUNCH_DATE":"2020-06-04","SEMIMAJOR_AXIS":"6925.375","TLE_LINE2":"2 45707  53.0537 271.3648 0000947 112.2419 247.8671 15.06391417 69534","CLASSIFICATION_TYPE":"U","REF_FRAME":"TEME","RCS_SIZE":"LARGE","APOAPSIS":"547.896","EPHEMERIS_TYPE":"0","PERIOD":"95.593"},{"EPHEMERIS_TYPE":"0","APOAPSIS":"547.824","PERIOD":"95.593","TLE_LINE2":"2 45708  53.0547 271.4832 0000848  79.6671 280.4413 15.06392470 69535","CLASSIFICATION_TYPE":"U","RCS_SIZE":"LARGE","REF_FRAME":"TEME","SEMIMAJOR_AXIS":"6925.372","LAUNCH_DATE":"2020-06-04","TLE_LINE1":"1 45708U 20035BD  21238.51567579  .00000733  00000-0  68075-4 0  9998","MEAN_ELEMENT_THEORY":"SGP4","OBJECT_TYPE":"PAYLOAD","DECAY_DATE":null,"MEAN_MOTION_DOT":"0.00000733","EPOCH":"2021-08-26T12:22:34.388256","ELEMENT_SET_NO":"999","MEAN_MOTION_DDOT":"0.0000000000000","NORAD_CAT_ID":"45708","ARG_OF_PERICENTER":"79.6671","ECCENTRICITY":"0.00008480","FILE":"3103480","GP_ID":"183496396","MEAN_ANOMALY":"280.4413","SITE":"AFETR","CENTER_NAME":"EARTH","PERIAPSIS":"546.649","MEAN_MOTION":"15.06392470","RA_OF_ASC_NODE":"271.4832","BSTAR":"0.00006807500000","REV_AT_EPOCH":"6953","TIME_SYSTEM":"UTC","OBJECT_ID":"2020-035BD","COUNTRY_CODE":"US","INCLINATION":"53.0547","OBJECT_NAME":"STARLINK-1418"}];
